SHIJIAN-6 02B (SJ-6 02B)
1 29506U 06046B   26063.83150692  .00003316  00000+0  26422-3 0  9990
2 29506  97.7049  93.6056 0014168  58.8983 301.3629 15.00970573 55089
FGRST (GLAST)           
1 33053U 08029A   26063.70461148  .00005215  00000+0  19977-3 0  9999
2 33053  25.5812 209.6235 0008405 169.3273 190.7444 15.23284440979887
SDO                     
1 36395U 10005A   26063.06561393 -.00000066  00000+0  00000+0 0  9993
2 36395  34.4299  87.9334 0000327  66.0578 289.5342  1.00275428 59003
CRYOSAT 2               
1 36508U 10013A   26063.80550102  .00000282  00000+0  69170-4 0  9993
2 36508  92.0224 252.0113 0002115  87.0414 273.1035 14.51906075842935
X-SAT                   
1 37389U 11015C   26063.82879786  .00000170  00000+0  90079-4 0  9996
2 37389  98.3417  45.8775 0012941 292.0910  67.8896 14.25170216772818
GCOM-W1 (SHIZUKU)       
1 38337U 12025A   26063.78654314  .00000915  00000+0  21309-3 0  9991
2 38337  98.2051   5.9210 0001500  75.5547 313.9771 14.57089916733832
NUSTAR                  
1 38358U 12031A   26063.91668981  .00008905  00000+0  51248-3 0  9993
2 38358   6.0268  95.6354 0008276 348.5150 107.1571 15.07646637  1303
NEOSSAT                 
1 39089U 13009D   26063.46929375  .00000344  00000+0  13365-3 0  9995
2 39089  98.4136 246.0004 0010724 193.1162 166.9747 14.35782520681715
BRITE-AUSTRIA           
1 39091U 13009F   26063.45016346  .00000360  00000+0  13733-3 0  9999
2 39091  98.3950 245.4888 0010049 186.6674 173.4381 14.36492679682014
IRIS                    
1 39197U 13033A   26063.50854155  .00002171  00000+0  25596-3 0  9999
2 39197  97.9397 263.0778 0023481 303.2105  56.6859 14.85627809684838
HISAKI (SPRINT-A)       
1 39253U 13049A   26063.25212383  .00000122  00000+0  73781-4 0  9996
2 39253  29.7220  33.4998 0136720 246.0358 112.5843 13.55530088617173
CASSIOPE                
1 39265U 13055A   26063.80961402  .00044076 -50954-6  53156-3 0  9990
2 39265  80.9193 192.8070 0317128  52.4850 310.4752 15.18339858651791
STSAT-3                 
1 39422U 13066G   26063.88278705  .00004740  00000+0  36535-3 0  9997
2 39422  97.6056  35.5979 0011952  31.1111 329.0819 15.02037391668541
SWARM B                 
1 39451U 13067A   26063.75679162  .00006263  00000+0  22957-3 0  9993
2 39451  87.7489  13.9825 0003704  89.2649 270.9024 15.27800610667291
SWARM A                 
1 39452U 13067B   26063.74737093  .00014352  00000+0  26811-3 0  9992
2 39452  87.3286  94.9896 0003033  93.3574 266.8032 15.48618471690078
SWARM C                 
1 39453U 13067C   26063.74726213  .00014449  00000+0  26993-3 0  9993
2 39453  87.3284  93.5712 0003045  93.4380 266.7228 15.48617997690032
BRITE-CA1 (TORONTO)     
1 40020U 14033L   26063.32853596  .00001935  00000+0  29920-3 0  9997
2 40020  97.9558 194.3075 0077710 252.3100 106.9613 14.72445502626784
