[{"OBJECT_NAME":"SHIJIAN-6 02B (SJ-6 02B)","OBJECT_ID":"2006-046B","EPOCH":"2026-03-04T19:57:22.197888","MEAN_MOTION":15.00970573,"ECCENTRICITY":0.0014168,"INCLINATION":97.7049,"RA_OF_ASC_NODE":93.6056,"ARG_OF_PERICENTER":58.8983,"MEAN_ANOMALY":301.3629,"EPHEMERIS_TYPE":0,"CLASSIFICATION_TYPE":"U","NORAD_CAT_ID":29506,"ELEMENT_SET_NO":999,"REV_AT_EPOCH":5508,"BSTAR":0.00026422,"MEAN_MOTION_DOT":3.316e-5,"MEAN_MOTION_DDOT":0},{"OBJECT_NAME":"FGRST (GLAST)","OBJECT_ID":"2008-029A","EPOCH":"2026-03-04T16:54:38.431872","MEAN_MOTION":15.2328444,"ECCENTRICITY":0.0008405,"INCLINATION":25.5812,"RA_OF_ASC_NODE":209.6235,"ARG_OF_PERICENTER":169.3273,"MEAN_ANOMALY":190.7444,"EPHEMERIS_TYPE":0,"CLASSIFICATION_TYPE":"U","NORAD_CAT_ID":33053,"ELEMENT_SET_NO":999,"REV_AT_EPOCH":97988,"BSTAR":0.00019977,"MEAN_MOTION_DOT":5.215e-5,"MEAN_MOTION_DDOT":0},{"OBJECT_NAME":"SDO","OBJECT_ID":"2010-005A","EPOCH":"2026-03-04T01:34:29.043552","MEAN_MOTION":1.00275428,"ECCENTRICITY":3.276e-5,"INCLINATION":34.4299,"RA_OF_ASC_NODE":87.9334,"ARG_OF_PERICENTER":66.0578,"MEAN_ANOMALY":289.5342,"EPHEMERIS_TYPE":0,"CLASSIFICATION_TYPE":"U","NORAD_CAT_ID":36395,"ELEMENT_SET_NO":999,"REV_AT_EPOCH":5900,"BSTAR":0,"MEAN_MOTION_DOT":-6.6e-7,"MEAN_MOTION_DDOT":0},{"OBJECT_NAME":"CRYOSAT 2","OBJECT_ID":"2010-013A","EPOCH":"2026-03-04T19:19:55.288128","MEAN_MOTION":14.51906075,"ECCENTRICITY":0.0002115,"INCLINATION":92.0224,"RA_OF_ASC_NODE":252.0113,"ARG_OF_PERICENTER":87.0414,"MEAN_ANOMALY":273.1035,"EPHEMERIS_TYPE":0,"CLASSIFICATION_TYPE":"U","NORAD_CAT_ID":36508,"ELEMENT_SET_NO":999,"REV_AT_EPOCH":84293,"BSTAR":6.917e-5,"MEAN_MOTION_DOT":2.82e-6,"MEAN_MOTION_DDOT":0},{"OBJECT_NAME":"X-SAT","OBJECT_ID":"2011-015C","EPOCH":"2026-03-04T19:53:28.135104","MEAN_MOTION":14.25170216,"ECCENTRICITY":0.0012941,"INCLINATION":98.3417,"RA_OF_ASC_NODE":45.8775,"ARG_OF_PERICENTER":292.091,"MEAN_ANOMALY":67.8896,"EPHEMERIS_TYPE":0,"CLASSIFICATION_TYPE":"U","NORAD_CAT_ID":37389,"ELEMENT_SET_NO":999,"REV_AT_EPOCH":77281,"BSTAR":9.0079e-5,"MEAN_MOTION_DOT":1.7e-6,"MEAN_MOTION_DDOT":0},{"OBJECT_NAME":"GCOM-W1 (SHIZUKU)","OBJECT_ID":"2012-025A","EPOCH":"2026-03-04T18:52:37.327296","MEAN_MOTION":14.57089916,"ECCENTRICITY":0.00015,"INCLINATION":98.2051,"RA_OF_ASC_NODE":5.921,"ARG_OF_PERICENTER":75.5547,"MEAN_ANOMALY":313.9771,"EPHEMERIS_TYPE":0,"CLASSIFICATION_TYPE":"U","NORAD_CAT_ID":38337,"ELEMENT_SET_NO":999,"REV_AT_EPOCH":73383,"BSTAR":0.00021309,"MEAN_MOTION_DOT":9.15e-6,"MEAN_MOTION_DDOT":0},{"OBJECT_NAME":"NUSTAR","OBJECT_ID":"2012-031A","EPOCH":"2026-03-04T22:00:01.999584","MEAN_MOTION":15.07646637,"ECCENTRICITY":0.0008276,"INCLINATION":6.0268,"RA_OF_ASC_NODE":95.6354,"ARG_OF_PERICENTER":348.515,"MEAN_ANOMALY":107.1571,"EPHEMERIS_TYPE":0,"CLASSIFICATION_TYPE":"U","NORAD_CAT_ID":38358,"ELEMENT_SET_NO":999,"REV_AT_EPOCH":130,"BSTAR":0.00051248,"MEAN_MOTION_DOT":8.905e-5,"MEAN_MOTION_DDOT":0},{"OBJECT_NAME":"NEOSSAT","OBJECT_ID":"2013-009D","EPOCH":"2026-03-04T11:15:46.980000","MEAN_MOTION":14.3578252,"ECCENTRICITY":0.00107241,"INCLINATION":98.4136,"RA_OF_ASC_NODE":246.0004,"ARG_OF_PERICENTER":193.1162,"MEAN_ANOMALY":166.9747,"EPHEMERIS_TYPE":0,"CLASSIFICATION_TYPE":"U","NORAD_CAT_ID":39089,"ELEMENT_SET_NO":999,"REV_AT_EPOCH":68171,"BSTAR":0.00013364943,"MEAN_MOTION_DOT":3.44e-6,"MEAN_MOTION_DDOT":0},{"OBJECT_NAME":"BRITE-AUSTRIA","OBJECT_ID":"2013-009F","EPOCH":"2026-03-04T10:48:14.122944","MEAN_MOTION":14.36492679,"ECCENTRICITY":0.00100496,"INCLINATION":98.395,"RA_OF_ASC_NODE":245.4888,"ARG_OF_PERICENTER":186.6674,"MEAN_ANOMALY":173.4381,"EPHEMERIS_TYPE":0,"CLASSIFICATION_TYPE":"U","NORAD_CAT_ID":39091,"ELEMENT_SET_NO":999,"REV_AT_EPOCH":68201,"BSTAR":0.0001373349,"MEAN_MOTION_DOT":3.6e-6,"MEAN_MOTION_DDOT":0},{"OBJECT_NAME":"IRIS","OBJECT_ID":"2013-033A","EPOCH":"2026-03-04T12:12:17.989920","MEAN_MOTION":14.85627809,"ECCENTRICITY":0.00234811,"INCLINATION":97.9397,"RA_OF_ASC_NODE":263.0778,"ARG_OF_PERICENTER":303.2105,"MEAN_ANOMALY":56.6859,"EPHEMERIS_TYPE":0,"CLASSIFICATION_TYPE":"U","NORAD_CAT_ID":39197,"ELEMENT_SET_NO":999,"REV_AT_EPOCH":68483,"BSTAR":0.00025595906,"MEAN_MOTION_DOT":2.171e-5,"MEAN_MOTION_DDOT":0},{"OBJECT_NAME":"HISAKI (SPRINT-A)","OBJECT_ID":"2013-049A","EPOCH":"2026-03-04T06:03:03.498912","MEAN_MOTION":13.55530088,"ECCENTRICITY":0.01367206,"INCLINATION":29.722,"RA_OF_ASC_NODE":33.4998,"ARG_OF_PERICENTER":246.0358,"MEAN_ANOMALY":112.5843,"EPHEMERIS_TYPE":0,"CLASSIFICATION_TYPE":"U","NORAD_CAT_ID":39253,"ELEMENT_SET_NO":999,"REV_AT_EPOCH":61717,"BSTAR":7.37813e-5,"MEAN_MOTION_DOT":1.22e-6,"MEAN_MOTION_DDOT":0},{"OBJECT_NAME":"CASSIOPE","OBJECT_ID":"2013-055A","EPOCH":"2026-03-04T19:25:50.651328","MEAN_MOTION":15.18339858,"ECCENTRICITY":0.0317128,"INCLINATION":80.9193,"RA_OF_ASC_NODE":192.807,"ARG_OF_PERICENTER":52.485,"MEAN_ANOMALY":310.4752,"EPHEMERIS_TYPE":0,"CLASSIFICATION_TYPE":"U","NORAD_CAT_ID":39265,"ELEMENT_SET_NO":999,"REV_AT_EPOCH":65179,"BSTAR":0.00053156,"MEAN_MOTION_DOT":0.00044076,"MEAN_MOTION_DDOT":-5.0954e-7},{"OBJECT_NAME":"STSAT-3","OBJECT_ID":"2013-066G","EPOCH":"2026-03-04T21:11:12.801120","MEAN_MOTION":15.02037391,"ECCENTRICITY":0.0011952,"INCLINATION":97.6056,"RA_OF_ASC_NODE":35.5979,"ARG_OF_PERICENTER":31.1111,"MEAN_ANOMALY":329.0819,"EPHEMERIS_TYPE":0,"CLASSIFICATION_TYPE":"U","NORAD_CAT_ID":39422,"ELEMENT_SET_NO":999,"REV_AT_EPOCH":66854,"BSTAR":0.00036535,"MEAN_MOTION_DOT":4.74e-5,"MEAN_MOTION_DDOT":0},{"OBJECT_NAME":"SWARM B","OBJECT_ID":"2013-067A","EPOCH":"2026-03-04T18:09:46.795968","MEAN_MOTION":15.2780061,"ECCENTRICITY":0.0003704,"INCLINATION":87.7489,"RA_OF_ASC_NODE":13.9825,"ARG_OF_PERICENTER":89.2649,"MEAN_ANOMALY":270.9024,"EPHEMERIS_TYPE":0,"CLASSIFICATION_TYPE":"U","NORAD_CAT_ID":39451,"ELEMENT_SET_NO":999,"REV_AT_EPOCH":66729,"BSTAR":0.00022957,"MEAN_MOTION_DOT":6.263e-5,"MEAN_MOTION_DDOT":0},{"OBJECT_NAME":"SWARM A","OBJECT_ID":"2013-067B","EPOCH":"2026-03-04T17:56:12.848352","MEAN_MOTION":15.48618471,"ECCENTRICITY":0.0003033,"INCLINATION":87.3286,"RA_OF_ASC_NODE":94.9896,"ARG_OF_PERICENTER":93.3574,"MEAN_ANOMALY":266.8032,"EPHEMERIS_TYPE":0,"CLASSIFICATION_TYPE":"U","NORAD_CAT_ID":39452,"ELEMENT_SET_NO":999,"REV_AT_EPOCH":69007,"BSTAR":0.00026811,"MEAN_MOTION_DOT":0.00014352,"MEAN_MOTION_DDOT":0},{"OBJECT_NAME":"SWARM C","OBJECT_ID":"2013-067C","EPOCH":"2026-03-04T17:56:03.448032","MEAN_MOTION":15.48617997,"ECCENTRICITY":0.0003045,"INCLINATION":87.3284,"RA_OF_ASC_NODE":93.5712,"ARG_OF_PERICENTER":93.438,"MEAN_ANOMALY":266.7228,"EPHEMERIS_TYPE":0,"CLASSIFICATION_TYPE":"U","NORAD_CAT_ID":39453,"ELEMENT_SET_NO":999,"REV_AT_EPOCH":69003,"BSTAR":0.00026993,"MEAN_MOTION_DOT":0.00014449,"MEAN_MOTION_DDOT":0},{"OBJECT_NAME":"BRITE-CA1 (TORONTO)","OBJECT_ID":"2014-033L","EPOCH":"2026-03-04T07:53:05.506944","MEAN_MOTION":14.72445502,"ECCENTRICITY":0.007771,"INCLINATION":97.9558,"RA_OF_ASC_NODE":194.3075,"ARG_OF_PERICENTER":252.31,"MEAN_ANOMALY":106.9613,"EPHEMERIS_TYPE":0,"CLASSIFICATION_TYPE":"U","NORAD_CAT_ID":40020,"ELEMENT_SET_NO":999,"REV_AT_EPOCH":62678,"BSTAR":0.00029920168,"MEAN_MOTION_DOT":1.935e-5,"MEAN_MOTION_DDOT":0}]
